#dP2020  5 30  0  0  0.00000000      96 __u+U ITR00 FIT  IAC
## 2107 518400.00000000   900.00000000 58999 0.0000000000000
+  118   C01C02C03C04C06C07C08C09C10C11C12C13C14C16C19C20C21
+        C22C23C24C25C26C27C28C29C30C32C33C34C35C36C37C38C44
+        C45E01E02E03E04E05E07E08E09E11E12E13E14E15E18E19E21
+        E24E25E26E27E30E31E33E36G01G02G03G04G05G06G07G08G09
+        G10G11G12G13G14G15G16G17G18G19G20G21G22G23G24G25G26
+        G27G28G29G30G31G32J01J02J03J07R01R02R03R04R05R07R08
+        R09R11R12R13R14R15R16R17R18R19R20R21R22R23R24R26  0
++        13 13 13 13  8  8  8  8  8  8  8  8  8  8  8  7  8
++         8  7  8  7  8  8  8  7  7  8  8  8  8  8  8 10  0
++        10  4  4  4  5  4  5  5  5  4  4  4  4  4  4  4  5
++         4  5  4  5  5  5  5  4  3  4  3  3  3  3  3  3  3
++         3  4  4  3  3  3  3  4  3  3  3  4  4  4  3  7  3
++         3  4  3  3  4  3  8  8  8 14  6  6  6  6  5  5  5
++         5  6  6  6  5  5  6  6  5  6  6  5  5  5  5  8  0
%c M  cc GPS ccc cccc cccc cccc cccc ccccc ccccc ccccc ccccc
%c cc cc ccc ccc cccc cccc cccc cccc ccccc ccccc ccccc ccccc
%f  0.0000000  0.000000000  0.00000000000  0.000000000000000
%f  0.0000000  0.000000000  0.00000000000  0.000000000000000
%i    0    0    0    0      0      0      0      0         0
%i    0    0    0    0      0      0      0      0         0
/* INFORMATION & ANALYSIS CENTER (IAC)            RAPID DATA
/* S/V CLOCKS ARE ALIGNED TO GNSS TIME                      
/* G:C1WC2W R:C1PC2P E:C1XC5X C:C2IC6I J:C1CC2S             
/* PCV:IGS14_2101 OL/AL:FES2004  NONE     YN ORB:CoN CLK:CoN
*  2020 05 30 22 45  0.00000000
PC01 -34307.023721  24543.528056    747.988667   -464.055734
PC02   4412.296366  41911.695356  -1066.980397    315.280278
PC03 -14705.940077  39504.657971  -1064.119006    883.151270
PC04 -39609.029487  14472.258197   -142.147039   -192.242434
PC06 -22988.010837  34025.535718   8919.389111    742.307666
PC07  -8961.491103  32674.487537  25590.138690    -75.292071
PC08 -16957.635812  17388.956092 -34446.090673   -282.659157
PC09  -9786.466421  33449.201791  23742.685240    576.724622
PC10   3549.841928  39693.515264  14595.046864   -275.477347
PC11  19653.206019 -18203.115409   7785.591677   -397.773914
PC12  24737.564722  -7660.993883 -10340.705550    387.088021
PC13   -379.685527  23119.026055 -35160.538112    464.373540
PC14   9675.644790 -21086.283298  15497.566934    470.951849
PC16 -20864.281230  34732.113389  11392.659286   -629.588324
PC19  -3741.161805  26599.206880  -7574.676908    428.899222
PC20 -13483.759662  13345.233396 -20453.732799   -863.083021
PC21  15539.500446   8459.587693  21611.083365   -466.086770
PC22   8322.798984  24722.166482   9974.794503   -794.981356
PC23 -16132.774590 -18776.751064 -12869.281780   -863.331895
PC24  20414.968961  -4194.968295 -18553.134186   -805.746142
PC25   2147.457291 -16590.771372 -22339.672907   -635.158330
PC26  25950.071759   9130.104742  -4598.997460    700.115472
PC27 -21818.770678   -558.442611  17358.458410    339.124840
PC28  -6582.228091 -14537.850474  22891.940824   -222.696860
PC29 -11665.863630  20431.817742 -15012.223412    235.758974
PC30 -23804.252791  14401.259004   2000.921150    324.783879
PC32 -15597.341882  -8286.970725 -21581.074687   -884.575292
PC33   3705.815623 -26559.951339   7688.584769   -823.877588
PC34  23741.984953 -14610.985665  -1553.253624   -766.577687
PC35   6958.611905  14448.848839 -22839.860652   -819.821740
PC36  -2796.760443  16439.320602  22402.143736   -837.389939
PC37 -25687.341488 -10170.633985   3986.754654   -845.987025
PC38 -11374.736209  21777.258124 -34273.118853 999999.999999
PC44      0.000000      0.000000      0.000000 999999.999999
PC45  16199.379150  18668.751271  12949.278104    144.228283
PE01  -7887.579327 -25070.876634 -13615.360497   -867.551709
PE02   7963.943260  25083.710177  13537.737799    137.021947
PE03  -2894.604996  27404.170080  10837.662779   -304.490866
PE04 -11406.505346 -14956.745234 -22842.485236   -536.044405
PE05 -15670.340957  23910.947882  -7675.365821   -375.758462
PE07  19205.544651  -6463.302742  21585.510607   -389.055366
PE08  11511.702049  14644.490456  23016.985534   6170.750907
PE09 -19052.520731   6783.166678 -21608.758547   6044.230420
PE11 -29370.918653   3147.991551   1707.334420   3155.724758
PE12 -20586.431358  -9614.733301  18958.912198   5779.309676
PE13  29376.055419  -3113.380231  -1961.386693    401.232654
PE14 -18903.797860   2775.021231  15139.274487  -1032.447229
PE15  20815.078372   9345.965102 -18856.520979    865.218360
PE18  20976.038156   5552.523617 -23469.093475  -1132.463311
PE19   4512.383841 -27825.189684  -9020.279916  -2906.271719
PE21   8896.161001 -14738.130095 -24081.914770   -601.860420
PE24 -20881.233341  -4712.597007  20437.226868   5428.104006
PE25  -8996.873182  14636.094878  24107.721876   -511.405866
PE26  20414.064777 -13881.906514  16334.839554   3128.916774
PE27  20792.767472   4366.633763 -20607.966025    208.829230
PE30  20200.620164  21110.657478  -4725.035808   3865.134824
PE31 -20428.624293 -20812.195935   5059.267123   -472.710032
PE33     -3.629188 -16329.480451  24692.052857   -466.676215
PE36 -20688.102175  13747.166607 -16090.103718    553.311005
PG01  14446.847847  14000.004751 -17737.795583   -386.791779
PG02   9134.023046 -14252.143975  21096.011371   -464.415025
PG03  12472.852239  23190.672540   3820.192309   -193.009318
PG04   7818.824689  13924.846984  21230.824500    -96.227935
PG05   1016.817586 -22242.358112  14191.860008    -13.690938
PG06  20322.966212  -7725.799702  15337.783087   -280.721878
PG07  25998.062054   5973.288602   3165.233749   -293.236978
PG08  -2121.085854  21083.675720 -15838.634199    -35.834886
PG09  16332.732241   2729.638805  20722.230235   -227.313378
PG10 -15074.267360   2734.425042 -21626.519713   -356.904707
PG11   4195.391937  15973.017362 -21304.101020   -262.450701
PG12 -10391.707470 -24297.970137   3168.957867    111.785457
PG13  10833.254313 -21638.201616 -10956.273940     14.290223
PG14 -18846.389992  18363.773338  -2406.967815     -9.331893
PG15  -1193.703587 -21157.822018 -16094.566885   -227.600584
PG16  -1694.873575  22957.113191  12629.103204   -164.530757
PG17  20436.030870 -12493.114036 -11007.597874    273.153927
PG18 -25676.737293  -6133.599397   3023.345659    205.946246
PG19  20061.816644 -16875.229846  -4480.905672   -151.722748
PG20 -19114.669900  -8455.602669 -16590.309209    527.605176
PG21 -26331.155736   -795.741475  -1237.815828      5.424163
PG22   8702.951108  24650.689169  -4901.737783   -780.277411
PG23  18763.626171  -2054.488008  19236.640494   -109.860549
PG24 -13131.487295 -14446.854572 -18361.669229    -13.693501
PG25 -15921.256144 -18040.786197  11295.793390      8.550472
PG26  -9275.113138  14548.104200  20099.607239    216.333962
PG27 -11249.150628  22774.632917  -7276.765330   -307.762954
PG28  14131.895765  -3633.014383 -21610.942301    712.896134
PG29 -13286.887049  -6881.192140  21900.785923   -116.640401
PG30  25429.799402  -1603.396579  -7835.536175   -231.408340
PG31 -19631.097979   8332.308324  16070.173791    -45.909370
PG32 -19878.368148  13781.464796 -10717.750206    290.860170
PJ01 -20864.009885  29785.701990 -16738.903655   -295.223865
PJ02 -25356.668264  21426.982679  30878.964293     -0.273715
PJ03 -34705.596388  23801.767174   2402.314590     -3.543607
PJ07 -25409.664109  33644.544403    -30.810155      0.005649
PR01  -1078.664395 -24192.699869  -7978.358666     62.325489
PR02  -9464.518492  -8182.979207 -22191.889038    429.237943
PR03 -11136.126074  11058.453922 -20046.293850     15.941824
PR04  -6306.476270  23823.947644  -6549.448408     51.004762
PR05   1912.642186  23081.429848  10685.054091     51.416058
PR07  11120.278289 -11676.238431  19820.687936    -37.070607
PR08   6435.232980 -23789.069434   6666.949128    -52.548057
PR09  21330.164954  10579.439646  -9237.291447    135.418265
PR11   1010.182027 -12699.419700 -22076.714620    -25.401997
PR12 -13834.209793 -17766.974831 -11976.096746    135.094315
PR13 -21362.320995 -12813.648902   5459.511350    -39.350339
PR14 -16104.871322   -415.226327  19781.453199     51.765609
PR15  -1750.471062  12101.963583  22405.547897    106.566352
PR16  14447.112479  17527.389279  11463.514567     -3.841013
PR17 -23846.552394   9006.459722   1354.585065    329.113104
PR18 -15698.890493  13505.251516 -14843.414454     37.169535
PR19     34.303703  10952.930936 -23040.560706    -95.754019
PR20  18495.093765   1428.869738 -17529.742698   -413.034145
PR21  23709.728813  -9368.370987   -388.866823   -128.056486
PR22  13803.666157 -13514.951843  16727.928145     -3.734823
PR23  -7346.939021  -8173.316603  23006.707011    308.972958
PR24 -19082.934177  -1230.545763  16898.567663      0.713868
PR26  14897.807612   3869.428825 -20324.115337   -394.403705
EOF
